title;category;Beschreibung;address;zip;city;geo_latitude;geo_longitude;tel_1;tel_1_comment;tel_2;tel_2_comment;tel_3;tel_3_comment;email;web_url;url
21er Haus;museum;Das Museum wurde 2011 saniert und stellt unter der Leitung des Belvedere �sterreichische Kunst von 1945 bis heute aus.;Arsenalstra�e 1;1030;Wien;48,1857710810320;16,3836224650817;+43 1 795 57-134;;;;;;;http://www.21erhaus.at/;
A.E. K�chert;shopping;Dieser Traditions-Juwelier schm�ckt heute mit seinen Brillant-Sternen auch ungekr�nte H�upter.;Neuer Markt 15 ;1010;Wien;48,2065731;16,3705892;;;;;;;;http://www.koechert.com/;/portal/locations-de/a.e.-koechert
Aida;cafes;Aida ist eine Wiener Konditoreikette. Das Design der 50er, 60er und 70er, opulente S��speisen, hervorragender Kaffee und viel Rosa sind die Zutaten zum Erfolg.;Stock-im-Eisen-Platz 2 ;1010;Wien;48,2080194;16,3720473;+43 1 512 79 25 ;;;;;;;http://www.aida.at;/portal/locations-de/aida
Akademietheater;musicstage;Seit 1922 ist das Akademietheater die zweite Spielst�tte des Burgtheaters. Hier werden vor allem zeitgen�ssische St�cke gespielt.;Lisztstra�e 1;1030;Wien;48,2002455;16,3770872;+43 1 51444 4140;Tickets & Info im Servicecenter;+43 1 51444 4740;Abendkasse im Akademietheater;+43 1 513 1 513;Bestellen mit Kreditkarte;;http://www.burgtheater.at;/portal/locations-de/akademietheater
Albertina;museum;Die Albertina besitzt nicht nur eine der gr��ten und wertvollsten grafischen Sammlungen der Welt mit Werken wie D�rers �Feldhase� und Klimts Frauenstudien. Ihre neue Schausammlung pr�sentiert Meisterwerke der Moderne und spannt damit den Bogen von Monet �ber Picasso zu Baselitz.;Albertinaplatz 1 ;1010;Wien;48,2048541;16,3681588;+43 1 534 83 0 ;;;;;;info@albertina.at;http://www.albertina.at/;/portal/locations-de/albertina
Altmann & K�hne;cafes;"Die �kleinste Verf�hrung"" Wiens: handgefertigte Bonbons nach alten Originalrezepten (weltweiter Versand!). ";Am Graben 30 ;1010;Wien;48,2083379;16,3709213;+43 1 533 09 27 ;Tel.;;;;;;http://www.altmann-kuehne.at/;/portal/locations-de/altmann-kuehne
Anna Sacher;restaurants;Facettenreich wie der Charakter seiner Namensgeberin pr�sentiert sich dieses 2-Hauben-Restaurant;Philharmonikerstra�e 4 ;1010;Wien;48,2038663;16,3697551;+43 1 514 56 840 ;Tel.;;;;;;http://www.sacher.com/;/portal/locations-de/anna-sacher
Anzenberger Gallery;museum;Die 1989 gegr�ndete Gallerie zeigt haupts�chlich internationale K�nstler aus den Bereichen Photojournalismus, Dokumentation, Reportage und Portrait. ;Absberggasse 27;1100;Wien;48,1716442986060;16,3891426661316;+43-1-587 82 51;;;;;;;http://www.anzenbergergallery.com;
Atelier 10;museum;Das 2012 er�ffnete Atelier bietet K�nstlern, die aus sozialen Gr�nden,�nicht selbst�ndig in der Kunst bewegen k�nnen, Unterst�tzung. Neben Raum werden auch Materialen zur Verf�gung gestellt.  ;Puchsbaumgasse 1c/5/5;1100;Wien;48,17182;16,3911993000000;+43-1-64 11 281;;;;;;;http://www.atelier10.eu;
Az W � Architekturzentrum Wien;sightseeing;Das Az W genie�t mittlerweile in aller Welt eine hohe Reputation als Informations-, Wissens- und Forschungszentrum sowie als Architektursammlung. Hier werden die international aktuellen Leistungen der Architektur einer breiten �ffentlichkeit vermittelt und die nationale Architekturgeschichte des 20. und 21. Jahrhunderts kritisch beleuchtet. ;MuseumsQuartier, Museumsplatz 1 ;1070;Wien;48,2046538;16,3585099;+43 1 522 31 15 ;;;;;;office@azw.at;http://www.azw.at/;/portal/locations-de/architekturzentrum-wien
B72;nightlife;Eines der angesagtesten Lokale am G�rtel, unter der U-Bahn. Besonderheit: zweist�ckig. Live-Musik und DJs;Hernalser G�rtel, Stadtbahnbogen 72 ;1080;Wien;48,2112571;16,3478654;+43 1 409 21 28 ;Tel.;;;;;;http://www.b72.at/;/portal/locations-de/b72
Babenberger Passage;nightlife;In einer aufgelassenen Fu�g�nger-Unterf�hrung hat sich ein Club der besonderen Art etabliert, der mit futuristischem Interieur besticht.;Burgring 3, Babenberger Passage;1010;Wien;48,2033453;16,3627575;+43   1   961 88 00 ;;;;;;;http://www.club-passage.at;/portal/locations-de/passage
Backhausen;shopping;Geschenkartikel und Wohnaccessoires nach historischen Originalentw�rfen. Wiener Traditionsunternehmen.;Schwarzenbergstra�e 10 ;1010;Wien;48,2021199;16,373805;;;;;;;;http://www.backhausen.at/;/portal/locations-de/backhausen
Badeschiff;nightlife;Am Oberdeck des fest verankerten Stadtbads auf zwei Schiffen verlockt der �berdachte Pool zum Schwimmen im angenehm temperierten Wasser. Die wahre Attraktion verbirgt sich allerdings unter Deck: Der ehemalige Laderaum ist jetzt Dancefloor zum coolen Abtanzen unterhalb der Wasserlinie.;Donaukanal (Schwedenplatz - Urania);1010;Wien;48,21161138;16,38106289;+43 699 1 513 07 50 ;;;;;;office@badeschiff.at;http://www.badeschiff.at/;/portal/locations-de/badeschiff
Barfly's;nightlife;Eine Hotelbar nahe der Mariahilfer Stra�e, in der alles klassisch ist.;Esterh�zygasse 33 ;1060;Wien;48,1968887;16,3490578;+43 1 586 08 25 ;Tel.;;;;;;http://www.castillo.at/;/portal/locations-de/barflys
Burgtheater;musicstage;"Das Haus am Ring wurde 1874 bis 1888 nach den Pl�nen von Gottfried Semper und Karl von Hasenauer erbaut und ist auch heute noch eine der ersten Adressen f�r deutschsprachige Schauspielkunst. F�hrungen: in Deutsch und Englisch bzw. mit englischer Zusammenfassung, Dauer ca. 1 Stunde; andere Sprachen auf Anfrage.";Universit�tsring 2 (Dr.-Karl-Lueger-Ring 2);1010;Wien;48,2103409;16,3610849;+43 1 51444 4140 ;Tickets & Info im Servicecenter;+43 1 51444 4440 ;Abendkasse im Burgtheater;+43 1 513 1 513;Bestellen mit Kreditkarte;;http://www.burgtheater.at/;/portal/locations-de/burgtheater
Caf� Berg;cafes;"Das Caf� und die daneben ans�ssige Buchhandlung ""L�wenherz"" sind fixer Treffpunkt der Wiener Homosexuellen-Community und ihrer Freunde.";Berggasse 8 ;1090;Wien;48,2176676;16,3609186;+43 1 319 57 20 ;Tel.;;;;;;http://www.cafe-berg.at/;/portal/locations-de/cafe-berg
Caf� Central;cafes;Das Caf� Central war immer wieder Heimat gro�er Dichter, Lenker und Denker. Der Charme des ber�hmtesten Kaffeehauses der Welt macht jeden Besuch zu einem besonderen kulinarischen Erlebnis.;Herrengasse/Strauchgasse;1010;Wien;48,210196;16,365431;+43 1 533 37 63 61;;;;;;cafe.central@palaisevents.at;http://www.cafecentral-wien.at;/portal/locations-de/cafe-central
Caf� Diglas;cafes;Ein Wiener Traditionscaf� im Zentrum der Stadt. Hier wird Genuss gro� geschrieben, vom Fr�hst�ck bis zum Dinner gibt�s zu jeder Tageszeit das passende Angebot.;Wollzeile 10;1010;Wien;48,2086116;16,3752607;+43 1 512 57 65;Tel.;;;;;office@diglas.at;http://www.diglas.at;/portal/locations-de/cafe-diglas
Caf� Drechsler;cafes;Das legend�re Caf� Drechsler  am Naschmarkt wurde vom britischen Stardesigner Sir Terence Conran mit viel Fingerspitzengef�hl umgestaltet. T�glich 23 Stunden ge�ffnet � ab drei Uhr morgens werden die ersten G�ste verk�stigt. ;Linke Wienzeile 22 ;1060;Wien;48,1984329;16,3623848;+43 1 581 20 44 ;Tel.;;;;;;http://www.cafedrechsler.at/;/portal/locations-de/cafe-drechsler
Caf� Hawelka;cafes;Eine Wiener Institution. Sein einzigartiger Charme macht das Hawelka zum beliebten Treffpunkt f�r K�nstler und zu einem Ort der Ruhe - nur eine Seitengasse vom Stephansplatz entfernt.;Dorotheergasse 6 ;1010;Wien;48,2078082;16,3697549;+43 1 512 82 30 ;Tel.;;;;;;http://www.hawelka.at/;/portal/locations-de/cafe-hawelka
Caf� Landtmann;cafes;In diesem Wiener Traditions-Kaffeehaus waren u.a. Sigmund Freud, Marlene Dietrich, Romy Schneider, Paul McCartney und Hillary Clinton zu Gast.;Universit�tsring 4;1010;Wien;48,2114529;16,3615795;+43 1 24 100-120;;;;;;cafe@landtmann.at;http://www.landtmann.at;/portal/locations-de/cafe-landtmann
Caf� Leopold;cafes;"Gestaltet hat das Lokal im Leopold Museum das Wiener Architektenteam Ortner & Ortner. Das Caf� zeigt besonders bei Einbruch der Dunkelheit viel Charme und W�rme. Gute ""neue"" Wiener K�che, DJs am Abend. Schanigarten / Garten; Terasse";Museumsplatz 1 ;1070;Wien;48,2046538;16,3585099;+43 1 523 67 32 ;Tel.;;;;;;http://www.cafe-leopold.at/;/portal/locations-de/cafe-leopold
Caf� Pr�ckel;cafes;Ein Ringstra�en-Caf� gegen�ber dem Museum f�r angewandte Kunst, dessen Interieur aus den 1950er-Jahren nicht nur Kaffeehaus-Freunde begeistert.;Stubenring 24;1010;Wien;48,207674;16,3804718;+43 1 512 61 15;;;;;;prueckel@aon.at;http://www.prueckel.at;/portal/locations-de/cafe-prueckel
Caf� R�digerhof;cafes;Karten spielen, Zeitung lesen oder �ber Gott und die Welt plaudern: Im Caf� R�digerhof kommt keine Hektik auf. Das in der N�he des Naschmarktes gelegene Lokal befindet sich in einem der sch�nsten Jugendstilh�user Wiens.;Hamburger Stra�e 20 ;1050;Wien;48,195423;16,3552339;+43 1 586 31 38 ;Tel.;;;;;;;/portal/locations-de/cafe-ruedigerhof
Caf� Sacher;cafes;Hier genie�t man altehrw�rdige Wiener Kaffeehaustradition am besten mit einer Sacher-Torte.;Philharmonikerstra�e 4 ;1010;Wien;48,2038663;16,3697551;+43 1 514 56 0 ;Tel.;;;;;;http://www.sacher.com/;/portal/locations-de/cafe-sacher
Caf� Stein;gastronomy;Ein angesagter Treff in einer angesagten Gegend.Ganz nahe bei der Universit�t trifft sich seit Ewigkeiten eine interessante Mischung aus alter und junger Szene. ;W�hringer Stra�e 6-8 ;1090;Wien;48,2156599;16,361139;+43-1-319 72 41-0;Tel.;;;;;;http://www.cafe-stein.com/ ;/portal/locations-de/cafe-stein
Chelsea;nightlife;Das Urgestein der G�rtel-Lokale.Musik von Punk bis Brit-Pop. Jede Woche spielen hier auch mehrere Bands (oft aus England) live.;Lerchenfelder G�rtel, Stadtbahnb�gen 29-30 ;1080;Wien;48,2112571;16,3478654;+43 1 407 93 09 ;;;;;;;http://www.chelsea.co.at/;/portal/locations-de/chelsea
Corbaci;gastronomy;Hier geh�rt hochwertige Architektur zum Pflichtprogramm: die bemerkenswerte Mosaikdecke steht im Kontrast zur restlichen minimalistischen Architektur des Lokals.;MuseumsQuartier, Museumsplatz 1 ;1070;Wien;48,2046538;16,3585099;+43 1 523 65 66 ;Tel.;;;;;;http://www.azw.at;/portal/locations-de/corbaci
Das M�bel - Das Caf�;cafes;Kein Tisch gleicht dem anderen, jeder Sessel schaut anders aus - und die G�ste k�nnen hier nicht nur essen und trinken. Sondern auch die - st�ndig wechselnden - Einrichtungsst�cke kaufen.;Burggasse 10;1070;Wien;48,2042672;16,3550872;+43 1 524 94 97;;;;;;;http://www.dasmoebel.at;/portal/locations-de/das-moebel-das-cafe
Das M�bel - Das Gesch�ft;shopping;Ein absolut kreativer Shop nahe der Einkaufsmeile Mariahilfer Stra�e, der zum Staunen und St�bern einl�dt.;Gumpendorfer Stra�e 11 ;1060;Wien;48,1999371;16,3613137;+43 1 924 38 34 ;Tel.;;;;;;http://www.dasmoebel.at/;/portal/locations-de/das-moebel-das-geschaeft
Demel K. & K. Hofzuckerb�cker;shopping;Die einstige k.u.k. Hofzuckerb�ckerei steht noch heute f�r h�chste Qualit�t in Sachen Mehlspeisen & Kaffee. ;Kohlmarkt 14 ;1010;Wien;48,208589;16,3671648;+43 1 535 17 17 0 ;;;;;;;http://www.demel.at/;/portal/locations-de/demel-k.-k.-hofzuckerbaeckerei
Dommuseum;museum;Es liegt gleich neben dem Stephansdom. Zu sehen sind Kostbarkeiten sakraler Kunst, liturgische Ger�te, das kunstgeschichtlich bedeutende Bildnis des Habsburgers Herzog Rudolfs IV., gemalt um 1365, und vieles mehr.;Stephansplatz 6, Durchgang Wollzeile ;1010;Wien;48,20884374;16,37389346;+43 1 51552 3300;;;;;;;http://www.dommuseum.at/;/portal/locations-de/dommuseum
Donauturm;sightseeing;252 Meter hoch, mit zwei Schnell-Liften, die Sie binnen 45 Sekunden zum rotierenden Aussichts-Restaurant in 170 Metern H�he bringen.;Donauturmstra�e 4;1220;Wien;48,24028346;16,4099199;+43 1 263 35 72;;;;;;;http://www.donauturm.at/;/portal/locations-de/donauturm
Dorotheum Juwelier;shopping;"Das Palais Dorotheum ist seit 1901 Sitz des ""Dorotheums"", eines der f�hrenden Auktionsh�user weltweit. Rarer Schmuck von Art D�co bis zur Moderne kann nicht nur ersteigert sondern auch erworben werden.";K�rntner Stra�e 36;1010;Wien;48,2040438;16,3702775;+43 1 51 33 202;;;;;;;http://www.dorotheum.at;/portal/locations-de/dorotheum-juwelier
Dschungel Wien;musicstage;Junge Menschen von 2 bis 22 sind das Zielpublikum des Theaters f�r junges Publikum im MuseumsQuartier Wien. ;MuseumsQuartier, Museumsplatz 1;1070;Wien;48,2023513;16,3594755;+43 1 522 07 20 20 ;;;;;;tickets@dschungelwien.at;http://www.dschungelwien.at/;/portal/locations-de/dschungel-wien
Elfenkleid;shopping;Damenmode, bei der Tragekomfort und trendunabh�ngige Eleganz in schlichtem, geradlinigem Design dominiert.;Margaretenstra�e 39 ;1040;Wien;48,1948272;16,3629146;;;;;;;;http://www.elfenkleid.com/;/portal/locations-de/elfenkleid
First Floor;nightlife;"Inmitten der Innenstadt im Nightlife-Gebiet ""Bermuda Dreieck"" liegt - ein wenig versteckt im 1. Stock - eine der besten Cocktail-Bars der Stadt.";Seitenstettengasse 5, Ecke Rabensteig ;1010;Wien;48,2115391;16,3753057;+43 1 533 78 66 ;Tel.;;;;;;;/portal/locations-de/first-floor
Flex;nightlife;Star-DJs der Techno- und Drum'n'Bass-Szene, die angesagtesten Stars der Alternative Music und aktuellen Dancekultur statten dem Flex regelm��ig einen Besuch ab.;Donaukanal - Augartenbr�cke;1010;Wien;48,2186475;16,3700592;+43 1 533 75 25 ;;;;;;office@flex.at;http://www.flex.at/;/portal/locations-de/flex
Fluc;nightlife;"These clubs are strongly influenced by electronic music; everything from avant garde noise performances to boisterous indie disco parties take place here.";Praterstern 5 ;1020;Wien;48,2194446;16,3922694;;;;;;;;;/portal/locations-en/fluc-fluc-wanne
Gergely's;restaurants;Das Angebot in diesem Szeneviertel reicht von gediegener �sterreichischer K�che beim Silberwirt bis zu italienischen K�stlichkeiten in der Trattoria Margareta.;Schlossgasse 21 ;1050;Wien;48,191094;16,3593266;+43 1 544 07 67 ;Tel.;;;;;;http://www.gergelys.at;/portal/locations-de/gergelys-schlossquadrat
Glacis Beisl;gastronomy;Klassiker der Wiener K�che und eine gro�e Auswahl an �sterreichischen Weinen stehen hier auf der Karte.;Breitegasse 4;1070;Wien;48,2032121;16,3571072;+43 1 526 56 60 ;;;;;;;http://www.glacisbeisl.at/;/portal/locations-de/glacis-beisl
Haas & Haas;shopping;Das traditionsreiche Teehaus bietet duftende Tees und andere exklusive Produkte, die im Lokal nebenan konsumiert werden k�nnen.;Stephansplatz 4 ;1010;Wien;48,2079211;16,3737791;;;;;;;;http://www.haas-haas.at/;/portal/locations-de/haas-haas
Haus der Musik;museum;In der musikalischen Erlebniswelt im Herzen der Stadt wird Musik mit allen Sinnen erlebbar.;Seilerst�tte 30 ;1010;Wien;48,2038573;16,3732316;+43 1 513 48 50;;;;;;info@hdm.at;http://www.hdm.at/;/portal/locations-de/haus-der-musik
Haus des Meeres Vivarium Wien;museum;Fische aus dem Mittelmeer, aus tropischen und heimischen Gew�ssern, freifliegende V�gel, herumlaufende �ffchen und Krokodile bietet dieses Vivarium.;Fritz-Gr�nbaum-Platz 1 (Esterh�zypark) ;1060;Wien;48,19760668;16,35291553;+43 1 587 14 17 ;;;;;;office@haus-des-meeres.at;http://www.haus-des-meeres.at/;/portal/locations-de/haus-des-meeres-vivarium-wien
Hermesvilla Wien Museum;sightseeing;Die Villa der ber�hmten Kaiserin Elisabeth ist heute ein beliebter Schauplatz vielbeachteter Sonderausstellungen zu kulturgeschichtlichen Themen.;Lainzer Tiergarten;1130;Wien;48,17070736;16,24608243;+43 1 804 13 24 ;;;;;;office@wienmuseum.at;http://www.wienmuseum.at/;/portal/locations-de/hermesvilla-wien-museum
Hofburg;sightseeing;Inmitten der Altstadt k�nnen die Privatgem�cher und Repr�sentationsr�ume der Habsburger, sowie zahlreiche Museen besichtigt werden.;Heldenplatz ;1010;Wien;48,2062953;16,3637448;+43 1 587 36 66 ;;;;;;vienna@hofburg.com;http://www.hofburg.com/;/portal/locations-de/hofburg
Hotel Sacher;accommodations;Beschreibung;Philharmonikerstra�e 4 ;1010;Wien;48,2038663;16,3697551;+43-1-514 56;;;;;;;http://www.sacher.com/;/portal/locations-de/hotel-sacher
J�disches Museum Wien;museum;Dieses Haus bietet eine st�ndige Schau zur j�discher Geschichte und Religion sowie Wechselausstellungen zu verschiedenen Themen wie j�dische Literatur, Architektur, Fotografie, Kunst.;Dorotheergasse 11;1010;Wien;48,2071645;16,3693173;+43-1-535 04 31;;;;;;info@jmw.at;http://www.jmw.at;/portal/locations-de/juedisches-museum-wien
Julius Meinl am Graben;shopping;Hier kann man feinste Kulinarik und Lebensart aus aller Herren L�nder in unvergleichlicher Atmosph�re erleben.;Graben 19 ;1010;Wien;48,2094059;16,36829;;;;;;;;http://www.meinlamgraben.at/;/portal/locations-de/julius-meinl-am-graben
Karlskirche;sightseeing;Der auff�llige Sakralbau mit der m�chtiger Kuppel z�hlt zu den wichtigsten Barockbauten Wiens. Ein Lift f�hrt bis in die Kuppel, so dass die ber�hmten Rottmayr-Fresken ganz aus der N�he betrachtet werden k�nnen.;Karlsplatz ;1040;Wien;48,1989597;16,3702557;+43 1 505 62 94 ;Tel.;;;;;;http://www.karlskirche.at/;/portal/locations-de/karlskirche
Kirche am Steinhof;sightseeing;Das architektonisches Meisterwerk Otto Wagners ist der erste Kirchenbau der Moderne in Europa und ein Wiener Jugendstiljuwel.;Baumgartner H�he 1 ;1140;Wien;48,2114384;16,2851174;+43 910 60  11007;;;;;;;;/portal/locations-de/kirche-am-steinhof
Kleines Caf�;cafes;In diesem beliebten Szenetreffpunkt sieht man vor allem Leute aus dem k�nstlerischen Bereich.;Franziskanerplatz 3 ;1010;Wien;48,2066268;16,3743903;;;;;;;;;/portal/locations-de/kleines-cafe
Kunst Haus Wien;museum;Das von Friedensreich Hundertwasser im typischen Stil erbaute Haus bietet eine Schau seiner Werke sowie wechselnde Ausstellungen spannender Gegenwartskunst.;Untere Wei�gerberstra�e 13 ;1030;Wien;48,2110063;16,3934495;+43 1 712 04 91 ;;+43 1 712 04 95;;;;info@kunsthauswien.com;http://www.kunsthauswien.com;/portal/locations-de/kunst-haus-wien
Kunsthalle Wien;museum;Die Kunsthalle Wien im MuseumsQuartier konzentriert sich auf Pr�sentationen internationaler zeitgen�ssischer Kunst.;Museumsplatz 1 ;1070;Wien;48,2046538;16,3585099;+43-1-521 89-0;;;;;;office@kunsthallewien.at;http://www.kunsthallewien.at/;/portal/locations-de/kunsthalle-wien
Kunsthistorisches Museum;museum;Mit seiner Kollektion bedeutender Werke und der weltgr��ten Bruegel-Sammlung z�hlt das KHM zu den bedeutendsten Kunstsammlungen der Welt.;Maria-Theresien-Platz ;1010;Wien;48,20375984;16,36174428;+43 1 525 240 ;;;;;;info@khm.at;http://www.khm.at/;/portal/locations-de/kunsthistorisches-museum
Leopold Museum;museum;Hunderte Meisterwerke der �sterreichischen Moderne, zusammengetragen vom leidenschaftlichen Kunstliebhaber Dr. Rudolf Leopold, zeigt das neue Leopold Museum im MuseumsQuartier.;Museumsplatz 1 ;1070;Wien;48,2046538;16,3585099;+43 1 525 70  0 ;;;;;;office@leopoldmuseum.org;http://www.leopoldmuseum.org/ ;/portal/locations-de/leopold-museum-wien
Loft 8;museum;Das Loft 8 stellt vorwiegend Kunst junger �sterreichischer oder in �sterreich lebender K�nster aus.;Absberggasse 27, Loft 8, Objekt 8, Stiege 9/4. Stock;1100;Wien;48,1720289999999;16,3891158999999;+43 1 8022779;;;;;;;http://www.loft8.at;
Loft City (ehemalige Ankerbrotfabrik);musuem;In den einstigen Geb�uden der Ankertbrotfabrik wurden Lofts errichtet, die neben Gallerien auch Ateliers und eine Veranstaltungshalle beherbergen.;Absberggasse 27;1100;Wien;48,1715628438166;16,3892215275085;+43 1 982 39 39;;;;;;;http://www.loftcity.at/;
Loos American Bar;nightlife;Eine mond�ne Bar zum Schauen und Chillen, heute wie damals beliebt.;K�rntner Stra�e 10 ;1010;Wien;48,2070907;16,3714544;+43 1 512 32 83 ;;;;;;;http://www.loosbar.at/;/portal/locations-de/loos-american-bar
Ludwig Reiter Schuhmanufaktur;shopping;Die besondere Tradition des Hauses ist die Erzeugung rahmengen�hter Schuhe im klassisch Wiener Stil.;M�lkersteig 1;1010;Wien;48,21218416;16,36234603;;;;;;;;http://www.ludwig-reiter.com/;/portal/locations-de/ludwig-reiter-moelkersteig
Ludwig Reiter Schuhmanufaktur;shopping;Die besondere Tradition des Hauses ist die Erzeugung rahmengen�hter Schuhe im klassisch Wiener Stil.;F�hrichgasse 6 ;1010;Wien;48,2049256;16,3699003;;;;;;;;http://www.ludwig-reiter.com/;/portal/locations-de/ludwig-reiter-schuhmanufaktur
MAK - �sterreichisches Museum f�r angewandte Kunst/Gegenwartskunst;museum;In diesem Museum f�r Design sieht man auch kostbares Kunsthandwerk der Wiener Werkst�tte, Bugholzm�bel von Thonet und Highlights des Jugendstils.;Stubenring 5 ;1010;Wien;48,2076234;16,3813158;+43 1 711 36 0 ;;;;;;office@MAK.at;http://www.mak.at/;/portal/locations-de/mak-oesterreichisches-museum-fuer-angewandte-kunst
MAK Design Shop ;shopping;Artikel des t�glichen Lebens in jungem und ausgefallenem Design k�nnen hier erstanden werden.;Stubenring 5 ;1010;Wien;48,2076234;16,3813158;;;;;;;;http://www.makdesignshop.at/;/portal/locations-de/mak-design-shop
Manner Shop;shopping;Die Manner Schnitten, jene Nougat-Waffeln in der rosaroten Verpackung mit der Silhouette des Stephansdoms, sind absoluter Kult und in diesem Shop t�glich frisch;Stephansplatz 7, Rotenturmstra�e ;1010;Wien;48,2095097;16,373307;+43 1 488 22 0 ;Tel.;;;;;;http://www.manner.com/;/portal/locations-de/manner-shop
Motto;restaurants;"Das Restaurant Motto bew�hrt sich seit Jahren als Hotspot der Wiener Gastro-Szene. Hier mischen sich internationale Stars gerne unter das bunte Volk der ""Motto-G�ste"".";Sch�nbrunner Stra�e 30 ;1050;Wien;48,1929409;16,3575794;+43 1 587 06 72 ;;;;;;info@motto.at;http://www.motto.at/;/portal/locations-de/motto
MQ Point;shopping;Mehr als ein Museumsshop: Hier findet man Tassen und  Taschen in coolem Design, Buttons oder T-Shirts mit spa�igen Aufdrucken.;Museumsplatz 1;1070;Wien;48,2035349;16,3591216;+43 820 600 600 ;;;;;;;http://www.mqpoint.at;/portal/locations-de/mq-point
M�hlbauer Hutmanufaktur;shopping;Trendige Kopfbedeckungen des 1903 in Wien gegr�ndeten Familienunternehmens schm�ckt heute die H�upter des internationalen Jetsets.;Seilergasse 10;1010;Wien;48,2073137;16,3701304;+43 1 512 22 41;;;;;;;http://www.muehlbauer.at/;/portal/locations-de/muehlbauer-hutmanufaktur
mumok - Museum moderner Kunst Stiftung Ludwig Wien;museum;Bedeutende Werke internationaler K�nstler aus den Bereichen Pop Art, Fluxus, Nouveau R�alisme und Wiener Aktionismus sind hier zu sehen.;Museumsplatz 1 ;1070;Wien;48,20375283;16,35797346;+43 1 525 00 ;;;;;;info@mumok.at;http://www.mumok.at/;/portal/locations-de/mumok-museum-moderner-kunst-slw
MuseumsQuartier Wien;museum;Das Aufsehen erregende Kunstareal nahe der Hofburg lockt nicht nur mit prominenten Museen sondern auch mit einer quicklebendigen Lokal-Szene;Museumsplatz 1 ;1070;Wien;48,20337385;16,35870302;+43 1 523 58 81 ;;+43-0820 600 600 ;Inland, Info & Ticket Hotline t�glich von 10 bis 19 Uhr;+43-1-523 58 81-1730 ;Ausland, Info & Ticket Hotline t�glich von 10 bis 19 Uhr;office@mqw.at;http://www.mqw.at/;/portal/locations-de/museumsquartier-wien
Musikverein;musicstage;Musikfreunde auf der ganzen Welt kennen den Musikverein als Zentrum der Wiener Musikkultur, als Mittelpunkt des internationalen Konzertlebens, als Eldorado klassischer Musik.;Musikvereinsplatz 1;1010;Wien;48,20061724;16,3724119;+43 1 505 81 90;;;;;;tickets@musikverein.at;http://www.musikverein.at;/portal/locations-de/musikverein
MuTh Museum & Theater;musicstage;Das MuTh ist ein 2012 er�ffneter Konzertsaal der Wiener S�ngerknaben. Neben dem ber�hmten Chor treten auch andere Gr��en der Musikbranche auf.;Obere Augartenstra�e 1E;1020;Wien;48,2199835664055;16,3797569354736;+43 1 347 80 80;;;;;;;http://www.muth.at;
Naschmarkt Deli;gastronomy;Ein beliebter Platz der Wiener Szene - Sounds zwischen Break Beats und Easy Listening von Wiener und internationalen DJs kann man hier h�ren.;Naschmarkt 421-436 ;1060;Wien;48,1997355;16,3656163;+43 1 585 08 23 ;;;;;;;http://www.naschmarkt-deli.at/;/portal/locations-de/naschmarkt-deli
Naturhistorisches Museum;museum;Von Insekten �ber Edelsteine und Mineralien bis zu Flugsauriern�gewinnen Sie�in diesem Museusm nahe der Hofburg faszinierende Einblicke in die Geschichte�unserer Erde.;Maria-Theresien-Platz;1010;Wien;48,20513273;16,36002766;+43 1 521 77;;;;;;info@nhm-wien.ac.at;http://www.nhm-wien.ac.at;/portal/locations-de/naturhistorisches-museum-wien
Original Wiener Schneekugelmanufaktur & Schneekugelmuseum;museum;Seit �ber 100 Jahren verzaubern die Glaskugeln der Wiener Manufaktur Perzy mit ihren liebevoll gestalteten Winterlandschaften.;Schumanngasse 87 ;1170;Wien;48,2242513;16,331125;+43 1 486 43 41 ;;;;;;;http://www.viennasnowglobe.at/;/portal/locations-de/schneekugelmuseum
�sterreichische Werkst�tten;shopping;Das Fachgesch�ft f�r Designerschmuck, Glas, Mode-Accessoires und Wien Products.;K�rntner Stra�e 6 ;1010;Wien;48,2073423;16,3714692;+43-1-512 24 18;;;;;;office@austrianarts.com;http://www.austrianarts.com/;/portal/locations-de/oesterreichische-werkstaetten-wien-products-shop
�sterreichisches Filmmuseum;museum;Werke von heimischen und internationalen Filmemachern, Vortr�ge und eine Bibliothek lassen hier die Herzen von Filmliebhabern h�her schlagen. ;Augustinerstra�e 1;1010;Wien;48,2045802;16,3680759;+43 1 533 70 54 0 ;;;;;;office@filmmuseum.at;http://www.filmmuseum.at/;/portal/locations-de/oesterreichisches-filmmuseum
Otto Wagner Pavillon;sightseeing;Dieses ehemalige Stadtbahn-Stationsgeb�ude ist ein Wahrzeichen des Jugendstils und bietet heute�den Rahmen f�r eine kompakte Otto Wagner Pr�sentation.;Karlsplatz;1040;Wien;48,20039961;16,37046383;+43 1 505 87 47-0;;;;;;office@wienmuseum.at;http://www.wienmuseum.at;/portal/locations-de/otto-wagner-pavillon
Palmenhaus;sightseeing;In dem ehemaligen Gew�chshaus speist man zwischen exotischen Pflanzen und entspannt sich bei einem guten Glas Wein oder einem feinen Cocktail.;;1130;Wien;48,18482627;16,30238958;+43 1 87 75 08 74 06;;;;;;office@bundesgaerten.at;http://www.bundesgaerten.at;/portal/locations-de/palmenhaus
Park;shopping;In diesem ganz in Wei� gehaltenem Concept Store findet man Mode heimischer und internationaler Labels.;Mondscheingasse 20 ;1070;Wien;48,2010723;16,3495025;+43 1 526 44 14 ;Tel.;;;;;;http://www.park.co.at/;/portal/locations-de/park
Pitti;shopping;Ob gediegen oder flippig, wer Taschen liebt, ist hier zu Hause.;Goldschmiedgasse 10;1010;Wien;48,2086192;16,3711802;;;;;;;;http://www.pitti.at/;/portal/locations-de/pitti
Porgy & Bess;musicstage;Jazz vom Feinsten  findet man im Porgy & Bess, einem renommierten Jazz- und Musicclub mit vielf�ltigem Programmangebot. �sterreichischer und internationaler Musiker setzen hier au�ergew�hnliche und interessante musikalische Schwerpunkte. ;Riemergasse 11;1010;Wien;48,2068277;16,3766916;+43 1 512 88 11;;;;;;porgy@porgy.at;http://www.porgy.at;/portal/locations-de/porgy-bess
Pratersauna;nightlife;Die gro�z�gigen R�umlichkeiten einer ehemaligen Sauna im Prater sind Treffpunkt der Musik-, Kunst-, Kultur- und Lifestyle-Szene.;Waldsteingartenstra�e 135;1020;Wien;48,2132942;16,4046699;+43 1 729 19 27 ;;;;;;info@pratersauna.tv;http://www.pratersauna.tv;/portal/locations-de/pratersauna
Pregenzer Fashionstore;shopping;Neben den eigenen puristisch-strengen Kollektionen sind hier auch internationale Designerlabels vertreten.;Schleifm�hlgasse 4 ;1040;Wien;48,1966415;16,3665213;;;;;;;;http://www.pregenzer.com/;/portal/locations-de/pregenzer-fashionstore
Raimund Theater;musicstage;Das Raimund Theater war lange Zeit das Stammhaus publikumswirksamer Operetten, bevor auch hier in den 1970er Jahren das Musical Einzug hielt. Heute ist es eine Musical-Spielst�tte der Vereinigten B�hnen Wiens.;Wallgasse 18-20;1060;Wien;48,1921594;16,3397895;+43 1 588 85;Wien-Ticket;;;;;info@vbw.at;http://www.musicalvienna.at/ ;/portal/locations-de/raimund-theater
Ra'mien;gastronomy;Asiatische Fusionsk�che in einem absolut coolen Ambiente. Nicht teuer, nette Menschen und vor allem beste Qualit�t. ;Gumpendorfer Stra�e 9 ;1060;Wien;48,200167;16,3614752;+43 1  585 47 98 ;Tel.;;;;;;http://www.ramien.at/;/portal/locations-de/ramien
Restaurant Vestib�l;restaurants;Das Lokal im Burgtheater ist eine Gro�stadtbrasserie der Sonderklasse mit einem der sch�nsten Gastg�rten der Stadt.;Burgtheater, Universit�tsring 2;1010;Wien;48,2103678;16,3609253;+43 1 532 49 99;;;;;;restaurant@vestibuel.at;http://www.vestibuel.at;/portal/locations-de/restaurant-vestibuel
Riesenrad;sightseeing;Von diesem Wahrzeichen Wiens kann man den Blick auf die Stadt aus 64,75 Meter H�he genie�en.;Riesenradplatz 1;1020;Wien;48,2175095;16,3966444;+43 1 729 54 30;;;;;;info@wienerriesenrad.com;http://www.wienerriesenrad.at;/portal/locations-de/riesenrad
Ronacher Theater;musicstage;Das Ronacher, jenes Theater, in dem alle Stars des Revuetheaters ihr Wien-Deb�t feierten, ist heute die Musicalb�hne in der Wiener Innenstadt.;Seilerst�tte 9;1010;Wien;48,2051876;16,3750333;+43-1-588 85;Kartenreservierung bei Wien-Ticket;;;;;wienticket@wien-ticket.at;http://www.musicalvienna.at;/portal/locations-de/ronacher-theater
S�ulenhalle;nightlife;Die Clubdiskothek mit dem blumengeschm�ckten und palmenbest�ckten Garten bietet Tanzunterhaltung mit Stil.;Heldenplatz;1010;Wien;48,20722645;16,36169742;+43 1 532 42 41;;;;;;;http://www.facebook.com/Saeulenhalle;/portal/locations-de/saeulenhalle
Schatzkammer ;sightseeing;Hier, im �ltesten Teil der Hofburg (13. Jh.), finden Sie nicht nur die Kaiserkrone des Heiligen R�mischen Reiches (um 962) und die �sterreichische Kaiserkrone (1602), sondern auch den Burgunderschatz aus dem 15. Jahrhundert und den Schatz des Ordens vom Goldenen Vlies.;Hofburg, Schweizerhof;1010;Wien;48,2083556;16,3677601;+43 1 525 24 4031;;;;;;info.kk@khm.at;http://www.khm.at ;/portal/locations-de/schatzkammer
Schau Schau Brillen;shopping;In diesem au�ergew�hnlichen Fachgesch�ft mit hauseigener Manufaktur werden Augen mit Formenreichtum und Farbvielfalt verw�hnt.;Rotenturmstra�e 11 ;1010;Wien;48,209697;16,3733443;;;;;;;;http://www.schau-schau.at/;/portal/locations-de/schau-schau-brillen
Schauraum Lichterloh;museum;Der Schauraum Lichterloh zeigt Designerm�bel von damals und heute;;1100;Wien;48,1720289999999;16,3891158999999;0664 453 95 96;;;;;;;http://www.lichterloh.com;
Schloss Belvedere;sightseeing;"Besuchen Sie Gustav Klimt's legend�res Gem�lde ""Der Kuss"" und die bedeutenden Werke von Schiele und Kokoschka.";Oberes Belvedere, Prinz-Eugen-Stra�e 27;1030;Wien;48,19125929;16,37988422;+43 1 79 55 70 ;;;;;;office@bundesgaerten.at;http://www.belvedere.at ;/portal/locations-de/schlosspark-belvedere
Schloss Sch�nbrunn;sightseeing;Sch�nbrunn, die ehemalige Sommerresidenz der Kaiserfamilie, z�hlt zu den sch�nsten Barockschl�ssern Europas.;Maxingstra�e;1130;Wien;48,1806637;16,2991312;+43 1 877 50 87;;;;;;office@bundesgaerten.at;http://www.bundesgaerten.at;/portal/locations-de/schlosspark-schoenbrunn
Schokoladek�nig;shopping;Handgemachte Schokolade-K�stlichkeiten von goldenen Wienerherzen bis zu Schokoladekn�pfen warten hier auf Naschkatzen.;Freisingergasse 1 ;1010;Wien;48,2093168;16,3706687;;;;;;;;http://www.leschanz.at/;/portal/locations-de/schokoladekoenig
Secession;museum;In diesem bedeutenden Jugendstilgeb�ude mit seinem markanten goldenen Bl�tterdach ist Klimts ber�hmter Beethovenfries zu sehen.;Friedrichstra�e 12 ;1010;Wien;48,2004313;16,3658402;+43 1 587 53 07 ;;;;;;office@secession.at;http://www.secession.at/;/portal/locations-de/secession
shu! ;shopping;Ein Shop, so extravagant wie seine Schreibweise - macht Menschen mit dem etwas anderen Geschmack Lust auf neue Fu�bekleidung.;Neubaugasse 34 ;1070;Wien;48,2007076;16,3493332;+43 1 523 14 49 ;Tel.;;;;;;http://www.shu.at/;/portal/locations-de/shu
Sisi Museum;sightseeing;In den originalen Privatgem�chern der Kaiserin Elisabeth sind zahlreiche pers�nliche Objekte sowie die ber�hmtesten Elisabeth-Portr�ts zu sehen.;Hofburg;1010;Wien;48,2083556;16,3677601;+43 1 533 75 70;Tel.;;;;;;http://www.hofburg-wien.at;/portal/locations-de/sisimuseum
Sky Caf� Restaurant Bar;gastronomy;Hier bietet sich vom obersten Stock des Kaufhauses Steffl ein hervorragender Blick �ber die Innenstadt.;K�rntner Stra�e 19 ;1010;Wien;48,2064095;16,371684;+43 1 513 17 12 ;Tel.;;;;;;http://www.skybar.at/;/portal/locations-de/sky-cafe-restaurant-bar
Song;shopping;Die Boutique Song bietet aktuelle Mode von renommierten Designern und ist auch Wiens erster Acne-Shop.;Praterstra�e 11-13 ;1020;Wien;48,2131057;16,3812965;+43 1 532 28 58;;;;;;;http://www.song.at/;/portal/locations-de/saba-song
Spanische Hofreitschule;sightseeing;Reitkunst in h�chster Vollendung kann man hier im barocken Ambiente der Hofburg erleben.;Michaelerplatz 1 (Besucherzentrum);1010;Wien;48,2083556;16,3677601;+43 1 533 90 31;Infohotline;;;;;tickets@srs.at;http://www.srs.at;/portal/locations-de/spanische-hofreitschule
Staud's Wien;shopping;Seit 1947 verkauft hier Familie Staud erlesene Konfit�ren und Gem�sedelikatessen.;Brunnenmarkt, Brunnengasse/Schellhammergasse;1160;Wien;48,2151781;16,3033805;;;;;;;;http://www.stauds.com/;/portal/locations-de/staud2019s-wien
Stein's Diner;gastronomy;"Schon am Morgen ist im Caf� einiges los und wer bis in die Nacht bleiben will, der begibt sich am Abend in ""Stein's Diner"" unter dem Caf�.";Kolingasse 1 ;1090;Wien;48,2155309;16,3612527;+43 1 310 95 15 ;Tel.;;;;;;http://www.cafe-stein.com/;/portal/locations-de/steins-diner
Stephansdom;sightseeing;Das Wahrzeichen Wiens und �sterreichs bedeutendstes gotisches Bauwerk beherbergt eine Reihe von Kunstsch�tzen, die teilweise im Rahmen einer F�hrung besichtigt werden k�nnen: z.B. das Grabmal Kaiser Friedrichs III., der Wiener Neust�dter Altar, die Katakomben, die Pummerin - die gr��te Glocke �sterreichs usw.;Stephansplatz;1010;Wien;48,2087202;16,37276317;+43 1 515 52 3526;;;;;;;http://www.stephanskirche.at ;/portal/locations-de/stephansdom
Sterngasse4;shopping;Ein Store mit den aktuellsten Trends und Labels aus aller Welt und Fokus auf schicke Kleider und Accessoires.;Sterngasse 4 ;1010;Wien;48,2035475;16,3682037;;;;;;;;http://www.sterngasse4.com/;/portal/locations-de/sterngasse4
Strandbar Herrmann;gastronomy;Sonne, Sand und Urlaubsfeeling, gutes Essen und coole Drinks bietet am Wiener Donaukanal die Strandbar Herrmann.;Herrmannpark (Donaukanal-Urania);1010;Wien;48,2121534;16,3861776;;;;;;;;http://www.strandbar-herrmann.at;/portal/locations-de/strandbar-herrmann
Susanne Bisovsky;shopping;Bisovsky greift traditionelle Motive der Tracht auf und verwandelt sie in Couture, sie kombiniert folkloristische Elemente mit Eleganz oder kontrastiert sie mit Punk.;Seidengasse 13/6;1070;Wien;48,2002938;16,3455941;;;;;;;office@bisovsky.com;http://www.bisovsky.com/;/portal/locations-de/susanne-bisovsky
Susanne Kitz;shopping;Exklusive Taschen und Schmuck-Unikate aus Halbedelsteinen, Perlmutt und Horn erwarten die Kunden hier.;Weihburggasse 7�;1010;Wien;48,2072730;16,3727446;;;;;;;;http://www.susannekitz.com/;/portal/locations-de/susanne-kitz
Swarovski Wien;shopping;Die gesamte glitzernde und schillernde Produktvielfalt des weltbekannten Kristall-Designers kann hier bestaunt und auch gekauft werden.;K�rntner Stra�e 24 ;1010;Wien;48,2054839;16,3709295;;;;;;;;http://www.swarovski.com/wien/;/portal/locations-de/swarovski-wien
Tanzquartier Wien;musicstage;Im MuseumsQuartier, nahe der Hofburg, verf�gt dieses �sterreichische Zentrum f�r zeigen�ssischen Tanz und Performance �ber zwei Veranstaltungsorte.;MuseumsQuartier, Museumsplatz 1;1070;Wien;48,2046538;16,3585099;+43 1 581 35 91;;;;;;tanzquartier@tqw.at;http://www.tqw.at;/portal/locations-de/tanzquartier-wien
Technisches Museum Wien;museum;Einzigartige Schaust�cke aus der Technik- und Industriegeschichte beherbergt dieses Wiener Traditionsmuseum, wie die noch immer flugf�hige Ettrich-Taube, die Dampfmaschinen, der bordeauxrote Lohner-Porsche, das Schaubergwerk im Keller... ;Mariahilfer Stra�e 212;1140;Wien;48,1909435;16,3181505;+43 1 899 98-0;;;;;;museumsbox@tmw.at;http://www.technischesmuseum.at;/portal/locations-de/technisches-museum-wien
Theater an der Wien;musicstage;Rund jeden Monat eine Premiere, und das zw�lf Monate im Jahr � das bietet das 2006 als Opernhaus er�ffnete Theater an der Wien.;Linke Wienzeile 6;1060;Wien;48,1994032;16,3642544;+43 1 588 30 661;;;;;;;http://www.theater-wien.at;/portal/locations-de/theater-an-der-wien
Theater in der Josefstadt;musicstage;Er�ffnet 1788 ist das Theater in der Josefstadt heute das �lteste noch bestehende, st�ndig bespielte Theater Wiens. Heute bietet man hier einen gelungenen Mix aus Klassikern und Urauff�hrungen zeitgen�ssischer Autoren.;Josefst�dter Stra�e 26;1080;Wien;48,209524;16,3509494;+43 1 42 700-300;;;;;;ticket@josefstadt.org;http://www.josefstadt.org;/portal/locations-de/theater-in-der-josefstadt
Tiergarten Sch�nbrunn;sightseeing;"Der Tiergarten Sch�nbrunn in Wien ist der �lteste bestehende Zoo der Welt, die einzige erhaltene ""Barock-Menagerie"". Die oberste Maxime des Zoos heute ist aber: ""Sch�nbrunn soll ein Zoo der gl�cklichen Tiere sein"" � und das sieht man!";;1130;Wien;48,18348407;16,30199974;+43-1-877 92 94;;;;;;office@zoovienna.at;http://www.zoovienna.at;/portal/locations-de/tiergarten-schoenbrunn
Tourist-Info;servicepoints;Das Team vom WienTourismus hilft hier bei der Planung Ihres Wienbesuches und bucht vor Ort Ihr Hotel in Wien. Au�erdem: gratis Stadtpl�ne und Bosch�ren. Ge�ffnet t�glich von 9 bis 19 Uhr.;Albertinaplatz, Ecke Maysedergasse ;1010;Wien;48,2042157;16,3702358;+43-1-24555;;;;;;info@wien.info;http://www.wien.info;/portal/locations-de/tourist-info
U4 Diskothek;nightlife;Die legend�rste Disco der Stadt versorgt mittlerweile schon die vierte Generation an G�sten mit Partylaune auf zwei Floors  und den n�tigen Drinks.;Sch�nbrunner Stra�e 222 ;1120;Wien;48,1831645;16,328091;+43 1 817 11 92 ;Tel.;;;;;;http://www.u-4.at/;/portal/locations-de/u4-diskothek
Unger und Klein;gastronomy;In dieser Kombination aus Weinhandlung und Bar gehen �sthetischer und kulinarischer Genuss eine wunderbare Symbiose ein.;G�lsdorfgasse 2 ;1010;Wien;48,2133233;16,3721272;+43 1 532 13 23 ;Tel.;;;;;;http://www.ungerundklein.at/;/portal/locations-de/unger-und-klein
Volksgarten Clubdiskothek;nightlife;Die Clubdiskothek mit dem blumengeschm�ckten und palmenbest�ckten Garten bietet Tanzunterhaltung mit Stil.;Burgring 1 (Heldenplatz) ;1010;Wien;48,2062953;16,3637448;+43 1 532 42 41;;;;;;info@volksgarten.at;http://www.volksgarten.at/;/portal/locations-de/volksgarten-clubdiscothek
Volksoper Wien;musicstage;Die Volksoper bietet ungeheuer vielf�ltige B�hnenkunst: Sowohl Opern, klassische Musicals, zeitgen�ssischen Tanz und Konzerte als auch Operetten.;W�hringer Stra�e 78;1090;Wien;48,2245845;16,350275;+43 1 51444-3670;Information;+43 1 513 1 513;Bestellen mit Kreditkarte;;;tickets@volksoper.at;http://www.volksoper.at;/portal/locations-de/volksoper
Volkstheater;musicstage;Das Volkstheater wurde 1889 als �b�rgerliches Gegenst�ck� zum heutigen Burgtheater er�ffnet. Das Repertoire des Theaters umfasst neben �sterreichischen auch deutsche und internationale Klassiker.;Neustiftgasse 1 ;1070;Wien;48,2055471;16,356933;+43 1 52 111 400;;;;;;info@volkstheater.at;http://www.volkstheater.at;/portal/locations-de/volkstheater
WestLicht - Schauplatz f�r Fotografie;museum;Das Fotomuseum zeigt 700 wertvolle historische Fotoapparate und Spezialkameras, wechselnde Fotoausstellungen runden das Angebot ab.;Westbahnstra�e 40 ;1070;Wien;48,2019837;16,3421219;+43 1 522 66 36 ;;;;;;info@westlicht.com;http://www.westlicht.com/;/portal/locations-de/westlicht-schauplatz-fuer-fotografie
Wien Museum Karlsplatz;museum;Hier wird die Geschichte Wiens von den ersten Ansiedlungen bis zur Gegenwart dokumentiert.;Karlsplatz;1040;Wien;48,19935723;16,37275999;+43 1 505 87 470 ;;;;;;service@wienmuseum.at;http://www.wienmuseum.at/;/portal/locations-de/wien-museum-karlsplatz
Wiener Glasmuseum (Lobmeyr) ;museum;Seit beinah 200 Jahren steht dieser Wiener Familienbetrieb f�r exklusive Glaserzeugung in hochwertigem Design.;K�rntner Stra�e 26 ;1010;Wien;48,205244;16,3708078;+43 1 512 05 08 ;Tel.;;;;;;http://www.lobmeyr.at/;/portal/locations-de/wiener-glasmuseum-lobmeyr
Wiener Kammeroper ;musicstage;Dieses Opernhaus steht f�r aktuelle, niveauvolle Inszenierungen, junge, unverbrauchte Stimmen und ist Sprungbrett f�r die �Stars von morgen�.;Fleischmarkt 24;1010;Wien;48,2114195;16,3739165;+43 1 588 30 200;;;;;;info@theater-wien.at;http://www.theater-wien.at;/portal/locations-de/wiener-kammeroper
Wiener Konzerthaus;musicstage;Im stimmungsvollen Jugendstil-Ambiente des Konzerthauses kann man nicht nur klassisches Repertoire h�ren, sondern auch Musik vom Mittelalter bis zu progressivsten T�nen der Gegenwart.;Lothringerstra�e;1030;Wien;48,2008436;16,37717884;+43 1 242 002;;;;;;ticket@konzerthaus.at;http://www.konzerthaus.at;/portal/locations-de/wiener-konzerthaus
Wiener Porzellanmanufaktur Augarten;shopping;Augarten Porzellan besticht durch extravagantes Design, zeitlose Eleganz und pr�zise Handarbeit. ;Obere Augartenstra�e 1a;1020;Wien;48,224469;16,373627;+43 1 211 24-0;;;;;;augarten@augarten.at;http://www.augarten.at/;/portal/locations-de/wiener-porzellanmanufaktur-augarten
Wiener S�ngerknaben;musicstage;"Die ""j�ngsten musikalischen Botschafter Wiens"" sind bei den sonnt�glichen Heiligen Messen in der Hofburgkapelle zu h�ren.";Obere Augartenstra�e 1c ;1020;Wien;48,224458;16,3734017;;;;;;;;http://www.wsk.at/;/portal/locations-de/wiener-saengerknaben
Wiener Staatsoper;musicstage;Die Wiener Staatsoper ist eine der ersten Opernadressen der Welt. Internationale Spitzeninterpreten und Regisseure genie�en es hier ihre Kunst darzubieten.;Opernring 2;1010;Wien;48,2028178;16,3689153;+43 1 514 44 2250;Informationen;+43 1 513 1 513;Bestellen mit Kreditkarte;;;;http://www.wiener-staatsoper.at ;/portal/locations-de/wiener-staatsoper
Wiener Stadthalle;musicstage;1956 bekam Wien dank Architekt Roland Rainer die Wiener Stadthalle als Aush�ngeschild f�r moderne Konzerte und Shows. Die bis dahin unbekannte Gr��enordnung erm�glichte von Beginn an Events der Sonderklasse.;Vogelweidplatz 14;1150;Wien;48,2020572;16,3315712;+43 1 79 999 79;;;;;;tickets@stadthalle.com;http://www.stadthalle.com;/portal/locations-de/wiener-stadthalle
W�rstelstand Albertina;gastronomy;Dieser W�rstelstand gilt als zeitgem��e Interpretation dieser Wiener Institution: hier werden auch Bouteillenweine und Sekt angeboten.;Albertinaplatz ;1010;Wien;48,204367;16,3688208;+43 1 533 10 26 ;Tel.;;;;;;http://www.bitzinger.at/;/portal/locations-de/wuerstelstand-albertina
W�rstelstand am Hohen Markt;gastronomy;Seinen Kultfaktor verdankt dieser W�rstelstand seinen �ffnungszeiten bis in die fr�hen Morgenstunden.;Hoher Markt ;1010;Wien;48,210862;16,372725;+43 1 699 1 846 21 86 ;;;;;;;;/portal/locations-de/wuerstelstand-am-hohen-markt
Zentralfriedhof;sightseeing;Auf dem mehr als 2 Quadratkilometer gro�e Zentralfriedhof befindet sich die wahrscheinlich gr��te Anlage von Ehrengr�bern der Welt.Ihre letzte Ruhest�tte fanden hier u.a Ludwig van Beethoven, Franz Schubert, Johann Strau� und Johannes Brahms.;Simmeringer Hauptstra�e 234 ;1110;Wien;48,1542998;16,441214;+43 1 534 69;;;;;;;http://www.friedhoefewien.at;/portal/locations-de/zentralfriedhof
ZOOM Kindermuseum;museum;Das Kindermuseum im MuseumsQuartier bietet ein ganzj�hriges Ausstellungs- und Workshopangebot, sowie ein einzigartiges Multimedialabor.;Museumsquartier, Museumsplatz 1;1070;Wien;48,20222973;16,35943794;+43 1 524 79 08 ;;;;;;info@kindermuseum.at;http://www.kindermuseum.at/;/portal/locations-de/zoom-kindermuseum
Zur Schw�bischen Jungfrau;shopping;Hier findet man exklusive Tisch-, Bett- und Frotteew�sche sowie Daunendecken bester Qualit�t.;Graben 26 ;1010;Wien;48,2090112;16,3696138;;;;;;;;http://www.schwaebische-jungfrau.at/;/portal/locations-de/zur-schwaebischen-jungfrau
